start=new Date('2021-11-06T00:00:00.000Z').valueOf();
sats=[{"PERIOD":"95.591","ARG_OF_PERICENTER":"74.5641","RA_OF_ASC_NODE":"106.1411","MEAN_MOTION":"15.06411487","NORAD_CAT_ID":"48466","REV_AT_EPOCH":"2763","INCLINATION":"53.0611","MEAN_ELEMENT_THEORY":"SGP4","REF_FRAME":"TEME","MEAN_MOTION_DDOT":"0.0000000000000","MEAN_MOTION_DOT":"-0.00000402","EPHEMERIS_TYPE":"0","ELEMENT_SET_NO":"999","OBJECT_TYPE":"PAYLOAD","TLE_LINE2":"2 48466  53.0611 106.1411 0002715  74.5641 285.5648 15.06411487 27635","ECCENTRICITY":"0.00027150","EPOCH":"2021-11-05T20:53:20.974560","SITE":"AFETR","COUNTRY_CODE":"US","OBJECT_ID":"2021-040AQ","TIME_SYSTEM":"UTC","PERIAPSIS":"545.298","CLASSIFICATION_TYPE":"U","BSTAR":"-0.00000801650000","RCS_SIZE":"LARGE","FILE":"3204412","MEAN_ANOMALY":"285.5648","DECAY_DATE":null,"APOAPSIS":"549.059","TLE_LINE1":"1 48466U 21040AQ  21309.87038165 -.00000402  00000-0 -80165-5 0  9991","SEMIMAJOR_AXIS":"6925.313","GP_ID":"189046716","LAUNCH_DATE":"2021-05-09","CENTER_NAME":"EARTH","OBJECT_NAME":"STARLINK-2687"},{"ARG_OF_PERICENTER":"89.6684","PERIOD":"95.592","MEAN_MOTION":"15.06399332","RA_OF_ASC_NODE":"106.3259","INCLINATION":"53.0558","MEAN_ELEMENT_THEORY":"SGP4","NORAD_CAT_ID":"48467","REV_AT_EPOCH":"2762","ELEMENT_SET_NO":"999","MEAN_MOTION_DDOT":"0.0000000000000","REF_FRAME":"TEME","EPHEMERIS_TYPE":"0","MEAN_MOTION_DOT":"0.00000024","TLE_LINE2":"2 48467  53.0558 106.3259 0001511  89.6684 270.4478 15.06399332 27622","OBJECT_TYPE":"PAYLOAD","ECCENTRICITY":"0.00015110","EPOCH":"2021-11-05T19:54:57.619584","OBJECT_ID":"2021-040AR","TIME_SYSTEM":"UTC","PERIAPSIS":"546.169","SITE":"AFETR","COUNTRY_CODE":"US","FILE":"3204412","RCS_SIZE":"LARGE","MEAN_ANOMALY":"270.4478","CLASSIFICATION_TYPE":"U","BSTAR":"0.00002052000000","TLE_LINE1":"1 48467U 21040AR  21309.82983356  .00000024  00000-0  20520-4 0  9994","APOAPSIS":"548.262","SEMIMAJOR_AXIS":"6925.351","DECAY_DATE":null,"CENTER_NAME":"EARTH","OBJECT_NAME":"STARLINK-2659","GP_ID":"189047339","LAUNCH_DATE":"2021-05-09"},{"OBJECT_TYPE":"PAYLOAD","TLE_LINE2":"2 48468  53.0550 106.1032 0001743  73.8358 286.2822 15.06396758 27630","ECCENTRICITY":"0.00017430","EPOCH":"2021-11-05T21:03:57.798720","ELEMENT_SET_NO":"999","REF_FRAME":"TEME","MEAN_MOTION_DDOT":"0.0000000000000","MEAN_MOTION_DOT":"0.00000223","EPHEMERIS_TYPE":"0","INCLINATION":"53.0550","MEAN_ELEMENT_THEORY":"SGP4","NORAD_CAT_ID":"48468","REV_AT_EPOCH":"2763","PERIOD":"95.592","ARG_OF_PERICENTER":"73.8358","RA_OF_ASC_NODE":"106.1032","MEAN_MOTION":"15.06396758","CENTER_NAME":"EARTH","OBJECT_NAME":"STARLINK-2685","GP_ID":"189047579","LAUNCH_DATE":"2021-05-09","TLE_LINE1":"1 48468U 21040AS  21309.87775230  .00000223  00000-0  33853-4 0  9994","APOAPSIS":"548.431","SEMIMAJOR_AXIS":"6925.358","DECAY_DATE":null,"RCS_SIZE":"LARGE","FILE":"3204412","MEAN_ANOMALY":"286.2822","CLASSIFICATION_TYPE":"U","BSTAR":"0.00003385300000","TIME_SYSTEM":"UTC","OBJECT_ID":"2021-040AS","PERIAPSIS":"546.016","SITE":"AFETR","COUNTRY_CODE":"US"},{"TLE_LINE2":"2 48469  53.0557 106.3505 0001857  75.9437 284.1759 15.06410156 27626","OBJECT_TYPE":"PAYLOAD","ECCENTRICITY":"0.00018570","EPOCH":"2021-11-05T19:49:38.947872","REF_FRAME":"TEME","MEAN_MOTION_DDOT":"0.0000000000000","EPHEMERIS_TYPE":"0","MEAN_MOTION_DOT":"0.00003104","ELEMENT_SET_NO":"999","NORAD_CAT_ID":"48469","REV_AT_EPOCH":"2762","INCLINATION":"53.0557","MEAN_ELEMENT_THEORY":"SGP4","ARG_OF_PERICENTER":"75.9437","PERIOD":"95.591","RA_OF_ASC_NODE":"106.3505","MEAN_MOTION":"15.06410156","GP_ID":"189047603","LAUNCH_DATE":"2021-05-09","CENTER_NAME":"EARTH","OBJECT_NAME":"STARLINK-2661","DECAY_DATE":null,"TLE_LINE1":"1 48469U 21040AT  21309.82614523  .00003104  00000-0  22716-3 0  9993","APOAPSIS":"548.468","SEMIMAJOR_AXIS":"6925.317","CLASSIFICATION_TYPE":"U","BSTAR":"0.00022716000000","FILE":"3204412","RCS_SIZE":"LARGE","MEAN_ANOMALY":"284.1759","SITE":"AFETR","COUNTRY_CODE":"US","TIME_SYSTEM":"UTC","OBJECT_ID":"2021-040AT","PERIAPSIS":"545.896"},{"CLASSIFICATION_TYPE":"U","BSTAR":"0.00015590000000","MEAN_ANOMALY":"271.0079","RCS_SIZE":"LARGE","FILE":"3204412","SITE":"AFETR","COUNTRY_CODE":"US","OBJECT_ID":"2021-040AU","TIME_SYSTEM":"UTC","PERIAPSIS":"545.812","GP_ID":"189046217","LAUNCH_DATE":"2021-05-09","CENTER_NAME":"EARTH","OBJECT_NAME":"STARLINK-2675","DECAY_DATE":null,"SEMIMAJOR_AXIS":"6925.331","APOAPSIS":"548.581","TLE_LINE1":"1 48470U 21040AU  21309.82245870  .00002042  00000-0  15590-3 0  9992","NORAD_CAT_ID":"48470","REV_AT_EPOCH":"2761","MEAN_ELEMENT_THEORY":"SGP4","INCLINATION":"53.0544","ARG_OF_PERICENTER":"89.1139","PERIOD":"95.592","MEAN_MOTION":"15.06405651","RA_OF_ASC_NODE":"106.3540","OBJECT_TYPE":"PAYLOAD","TLE_LINE2":"2 48470  53.0544 106.3540 0001999  89.1139 271.0079 15.06405651 27619","EPOCH":"2021-11-05T19:44:20.431680","ECCENTRICITY":"0.00019990","REF_FRAME":"TEME","MEAN_MOTION_DDOT":"0.0000000000000","EPHEMERIS_TYPE":"0","MEAN_MOTION_DOT":"0.00002042","ELEMENT_SET_NO":"999"},{"SITE":"AFETR","COUNTRY_CODE":"US","OBJECT_ID":"2021-040AV","TIME_SYSTEM":"UTC","PERIAPSIS":"546.095","CLASSIFICATION_TYPE":"U","BSTAR":"0.00018416000000","FILE":"3204412","RCS_SIZE":"LARGE","MEAN_ANOMALY":"278.1392","DECAY_DATE":null,"TLE_LINE1":"1 48471U 21040AV  21309.88144066  .00002462  00000-0  18416-3 0  9990","APOAPSIS":"548.355","SEMIMAJOR_AXIS":"6925.360","GP_ID":"189047715","LAUNCH_DATE":"2021-05-09","CENTER_NAME":"EARTH","OBJECT_NAME":"STARLINK-2684","ARG_OF_PERICENTER":"81.9782","PERIOD":"95.592","RA_OF_ASC_NODE":"106.0998","MEAN_MOTION":"15.06396268","NORAD_CAT_ID":"48471","REV_AT_EPOCH":"2762","INCLINATION":"53.0562","MEAN_ELEMENT_THEORY":"SGP4","REF_FRAME":"TEME","MEAN_MOTION_DDOT":"0.0000000000000","EPHEMERIS_TYPE":"0","MEAN_MOTION_DOT":"0.00002462","ELEMENT_SET_NO":"999","OBJECT_TYPE":"PAYLOAD","TLE_LINE2":"2 48471  53.0562 106.0998 0001631  81.9782 278.1392 15.06396268 27621","ECCENTRICITY":"0.00016310","EPOCH":"2021-11-05T21:09:16.473024"},{"SITE":"AFETR","COUNTRY_CODE":"US","TIME_SYSTEM":"UTC","OBJECT_ID":"2021-040AW","PERIAPSIS":"546.118","CLASSIFICATION_TYPE":"U","BSTAR":"0.00016389000000","FILE":"3204412","RCS_SIZE":"LARGE","MEAN_ANOMALY":"268.0585","DECAY_DATE":null,"TLE_LINE1":"1 48472U 21040AW  21309.86300032  .00002161  00000-0  16389-3 0  9999","APOAPSIS":"548.275","SEMIMAJOR_AXIS":"6925.332","GP_ID":"189047204","LAUNCH_DATE":"2021-05-09","CENTER_NAME":"EARTH","OBJECT_NAME":"STARLINK-2722","PERIOD":"95.592","ARG_OF_PERICENTER":"92.0582","RA_OF_ASC_NODE":"106.1855","MEAN_MOTION":"15.06405541","NORAD_CAT_ID":"48472","REV_AT_EPOCH":"2761","INCLINATION":"53.0527","MEAN_ELEMENT_THEORY":"SGP4","REF_FRAME":"TEME","MEAN_MOTION_DDOT":"0.0000000000000","MEAN_MOTION_DOT":"0.00002161","EPHEMERIS_TYPE":"0","ELEMENT_SET_NO":"999","TLE_LINE2":"2 48472  53.0527 106.1855 0001557  92.0582 268.0585 15.06405541 27610","OBJECT_TYPE":"PAYLOAD","ECCENTRICITY":"0.00015570","EPOCH":"2021-11-05T20:42:43.227648"},{"SEMIMAJOR_AXIS":"6925.334","APOAPSIS":"548.729","TLE_LINE1":"1 48473U 21040AX  21309.83352057  .00002277  00000-0  17172-3 0  9990","DECAY_DATE":null,"CENTER_NAME":"EARTH","OBJECT_NAME":"STARLINK-2658","GP_ID":"189047228","LAUNCH_DATE":"2021-05-09","OBJECT_ID":"2021-040AX","TIME_SYSTEM":"UTC","PERIAPSIS":"545.669","SITE":"AFETR","COUNTRY_CODE":"US","MEAN_ANOMALY":"274.6861","RCS_SIZE":"LARGE","FILE":"3204412","CLASSIFICATION_TYPE":"U","BSTAR":"0.00017172000000","ELEMENT_SET_NO":"999","REF_FRAME":"TEME","MEAN_MOTION_DDOT":"0.0000000000000","EPHEMERIS_TYPE":"0","MEAN_MOTION_DOT":"0.00002277","OBJECT_TYPE":"PAYLOAD","TLE_LINE2":"2 48473  53.0560 106.3212 0002209  85.4381 274.6861 15.06404657 27612","EPOCH":"2021-11-05T20:00:16.177248","ECCENTRICITY":"0.00022090","ARG_OF_PERICENTER":"85.4381","PERIOD":"95.592","MEAN_MOTION":"15.06404657","RA_OF_ASC_NODE":"106.3212","MEAN_ELEMENT_THEORY":"SGP4","INCLINATION":"53.0560","NORAD_CAT_ID":"48473","REV_AT_EPOCH":"2761"},{"RCS_SIZE":"LARGE","FILE":"3204412","MEAN_ANOMALY":"279.4671","CLASSIFICATION_TYPE":"U","BSTAR":"0.00021278000000","TIME_SYSTEM":"UTC","OBJECT_ID":"2021-040AY","PERIAPSIS":"546.166","COUNTRY_CODE":"US","SITE":"AFETR","CENTER_NAME":"EARTH","OBJECT_NAME":"STARLINK-2697","GP_ID":"189046717","LAUNCH_DATE":"2021-05-09","APOAPSIS":"548.225","TLE_LINE1":"1 48474U 21040AY  21309.86668704  .00002890  00000-0  21278-3 0  9996","SEMIMAJOR_AXIS":"6925.331","DECAY_DATE":null,"INCLINATION":"53.0498","MEAN_ELEMENT_THEORY":"SGP4","NORAD_CAT_ID":"48474","REV_AT_EPOCH":"2761","PERIOD":"95.592","ARG_OF_PERICENTER":"80.6486","RA_OF_ASC_NODE":"106.1728","MEAN_MOTION":"15.06405887","TLE_LINE2":"2 48474  53.0498 106.1728 0001486  80.6486 279.4671 15.06405887 27610","OBJECT_TYPE":"PAYLOAD","ECCENTRICITY":"0.00014860","EPOCH":"2021-11-05T20:48:01.760256","ELEMENT_SET_NO":"999","MEAN_MOTION_DDOT":"0.0000000000000","REF_FRAME":"TEME","EPHEMERIS_TYPE":"0","MEAN_MOTION_DOT":"0.00002890"},{"TLE_LINE1":"1 48475U 21040AZ  21309.83721795  .00000442  00000-0  48613-4 0  9998","APOAPSIS":"548.420","SEMIMAJOR_AXIS":"6925.388","DECAY_DATE":null,"CENTER_NAME":"EARTH","OBJECT_NAME":"STARLINK-2619","GP_ID":"189047340","LAUNCH_DATE":"2021-05-09","OBJECT_ID":"2021-040AZ","TIME_SYSTEM":"UTC","PERIAPSIS":"546.087","SITE":"AFETR","COUNTRY_CODE":"US","FILE":"3204412","RCS_SIZE":"LARGE","MEAN_ANOMALY":"268.9870","CLASSIFICATION_TYPE":"U","BSTAR":"0.00004861300000","ELEMENT_SET_NO":"999","REF_FRAME":"TEME","MEAN_MOTION_DDOT":"0.0000000000000","MEAN_MOTION_DOT":"0.00000442","EPHEMERIS_TYPE":"0","OBJECT_TYPE":"PAYLOAD","TLE_LINE2":"2 48475  53.0550 106.2930 0001684  91.1312 268.9870 15.06386992 27610","ECCENTRICITY":"0.00016840","EPOCH":"2021-11-05T20:05:35.630880","PERIOD":"95.593","ARG_OF_PERICENTER":"91.1312","RA_OF_ASC_NODE":"106.2930","MEAN_MOTION":"15.06386992","INCLINATION":"53.0550","MEAN_ELEMENT_THEORY":"SGP4","NORAD_CAT_ID":"48475","REV_AT_EPOCH":"2761"}];
